{
  "norad_id": 66403,
  "name": "STARLINK-35602",
  "history": [
    {
      "epoch": "2026-03-28T19:53:35.236320",
      "apogee_km": 476.08874748224207,
      "perigee_km": 474.31469222121996,
      "latitude_deg": -53.15516245020307,
      "longitude_deg": 179.87248480017297,
      "semi_major_axis_km": 6853.33871985173,
      "eccentricity": 0.00012943,
      "inclination_deg": 53.1605,
      "raan_deg": 128.1271,
      "arg_perigee_deg": 86.505,
      "mean_anomaly_deg": 273.6099,
      "mean_motion_rev_day": 15.30204471
    }
  ]
}