{"fetched_at":"2026-03-29T16:36:15Z","count":15609,"tles":[{"name":"STARLINK-35602","line1":"1 66403U 25257Z   26087.82888005  .00018449  00000+0  63338-3 0  9993","line2":"2 66403  53.1605 128.1271 0001294  86.5050 273.6099 15.30204471 22662","category":"Starlink"}]}